[Satellite]
VERSION=1.1
NAME=CICERO 7
NICKNAME=CICERO 7
TLE1=1 43143U 18004AJ  22342.50774554  .00021555  00000+0  54903-3 0  9999
TLE2=2 43143  97.3614  61.5117 0006579  96.2017 263.9979 15.39556772273298
STATUS=0
